SAR-LUPE 2              
1 31797U 07030A   26169.25045830  .00030743  00000+0  54721-3 0  9996
2 31797  98.1045 273.8134 0005134 142.2406 217.9205 15.50084378 57106
SAPPHIRE                
1 39088U 13009C   26169.27729841  .00000079  00000+0  42615-4 0  9992
2 39088  98.4261 348.7071 0010105 243.0202 116.9952 14.35240849696734
PRAETORIAN SDA_602      
1 65565U 25203A   26169.03589389  .00000053  00000+0  36354-4 0  9990
2 65565  81.3030   9.9824 0005823 181.6157 178.4982 13.84342894 38818
PRAETORIAN SDA_603      
1 65566U 25203B   26169.20744728  .00000241  00000+0  20665-3 0  9996
2 65566  81.3033   9.7408 0009378 184.7009 175.4061 13.83905762 38843
PRAETORIAN SDA_604      
1 65567U 25203C   26169.08310869  .00000050  00000+0  35054-4 0  9995
2 65567  81.3052  10.2696 0005303 188.9180 171.1883 13.83047587 38804
PRAETORIAN SDA_605      
1 65568U 25203D   26169.04819191  .00000040  00000+0  25494-4 0  9990
2 65568  81.3017   9.9641 0008126 180.6555 179.4592 13.83434253 38811
PRAETORIAN SDA_606      
1 65569U 25203E   26168.30750804  .00000053  00000+0  37439-4 0  9990
2 65569  81.3055  10.8712 0005744 180.4388 179.6764 13.83407378 38708
PRAETORIAN SDA_607      
1 65570U 25203F   26169.03825583  .00000106  00000+0  84198-4 0  9993
2 65570  81.3038   9.8571 0008743 184.9602 175.1470 13.84284617 38820
PRAETORIAN SDA_608      
1 65571U 25203G   26169.08824370  .00000053  00000+0  36855-4 0  9990
2 65571  81.3006   9.9731 0005805 188.2307 171.8756 13.83816952 38811
PRAETORIAN SDA_609      
1 65572U 25203H   26169.02061212 -.00000063  00000+0 -67284-4 0  9996
2 65572  81.3049  10.0186 0006731 183.1323 176.9792 13.84211004 38811
PRAETORIAN SDA_610      
1 65573U 25203J   26169.06797639  .00000038  00000+0  23778-4 0  9990
2 65573  81.3007   9.9498 0006473 186.0221 174.0859 13.83851939 38810
PRAETORIAN SDA_611      
1 65574U 25203K   26169.06910305  .00000072  00000+0  54673-4 0  9994
2 65574  81.3012  10.1135 0005327 190.4255 169.6791 13.83308547 38808
PRAETORIAN SDA_612      
1 65575U 25203L   26169.05761789  .00000132  00000+0  10611-3 0  9994
2 65575  81.3033   9.7100 0009027 183.4700 176.6396 13.85037197 38830
PRAETORIAN SDA_613      
1 65576U 25203M   26169.29327023  .00000043  00000+0  28574-4 0  9999
2 65576  81.2998   9.9056 0005619 180.6819 179.4330 13.82765134 38830
PRAETORIAN SDA_614      
1 65577U 25203N   26168.97470263  .00000016  00000+0  33012-5 0  9993
2 65577  81.3014   9.8650 0007037 181.5884 178.5252 13.84777941 38821
PRAETORIAN SDA_615      
1 65578U 25203P   26169.02405581  .00000125  00000+0  10096-3 0  9998
2 65578  81.3022   9.7834 0009049 182.8420 177.2687 13.84436282 38827
PRAETORIAN SDA_616      
1 65579U 25203Q   26168.99601078  .00000148  00000+0  12411-3 0  9991
2 65579  81.3063  10.3287 0005271 190.0789 170.0262 13.83268300 38794
PRAETORIAN SDA_617      
1 65580U 25203R   26169.09002188  .00000031  00000+0  17014-4 0  9998
2 65580  81.3036  10.0727 0007301 181.5735 178.5399 13.83150105 38814
PRAETORIAN SDA_618      
1 65581U 25203S   26169.27900092  .00000166  00000+0  13735-3 0  9994
2 65581  81.3018   9.4764 0009674 184.9968 175.1094 13.84670108 38869
PRAETORIAN SDA_619      
1 65582U 25203T   26169.02641310  .00000191  00000+0  16150-3 0  9995
2 65582  81.3045  10.0092 0008093 183.2992 176.8113 13.83806697 39443
PRAETORIAN SDA_620      
1 65583U 25203U   26169.05451712  .00000120  00000+0  98043-4 0  9998
2 65583  81.3031  10.0042 0007600 178.1551 181.9634 13.83617431 38812
PRAETORIAN SDA_621      
1 65584U 25203V   26169.02818898  .00000055  00000+0  38877-4 0  9994
2 65584  81.3020   9.9461 0007404 176.2977 183.8235 13.83801365 38815
PRAETORIAN SDA_601      
1 65585U 25203W   26169.28855383  .00000175  00000+0  14940-3 0  9990
2 65585  81.3038  10.0019 0005327 191.9073 168.1959 13.83167240 38838
